NORAD_CAT_ID,OBJECT_NAME,OBJECT_TYPE,EPOCH,MEAN_MOTION,ECCENTRICITY,INCLINATION,RA_OF_ASC_NODE,ARG_OF_PERICENTER,MEAN_ANOMALY,BSTAR,MEAN_MOTION_DOT,MEAN_MOTION_DDOT,TLE_LINE0,TLE_LINE1,TLE_LINE2,SEMIMAJOR_AXIS,PERIOD,APOGEE,PERIGEE,DECAYED
53850.0,STARLINK-4767,PAYLOAD,2023-09-09 19:21:15,15.08841175,0.0001338,53.219,67.3404,87.6836,272.431,0.00014792,2.067e-05,0.0,0 STARLINK-4767,1 53850U 22114AJ  23252.80643475  .00002067  00000-0  14792-3 0  9993,2 53850  53.2190  67.3404 0001338  87.6836 272.4310 15.08841175 54772,6917.877,95.437,540.667,538.816,0.0
53850.0,STARLINK-4767,PAYLOAD,2023-09-10 11:15:07,15.0884157,0.0001321,53.2189,64.3666,85.425,274.6893,0.00017319,2.47e-05,0.0,0 STARLINK-4767,1 53850U 22114AJ  23253.46883508  .00002470  00000-0  17319-3 0  9995,2 53850  53.2189  64.3666 0001321  85.4250 274.6893 15.08841570 55416,6917.876,95.437,540.654,538.827,0.0
53850.0,STARLINK-4767,PAYLOAD,2023-09-11 04:44:21,15.08840057,0.0001196,53.2169,61.0944,85.994,274.1189,0.00010364,1.362e-05,0.0,0 STARLINK-4767,1 53850U 22114AJ  23254.19747594  .00001362  00000-0  10364-3 0  9992,2 53850  53.2169  61.0944 0001196  85.9940 274.1189 15.08840057 54981,6917.88,95.438,540.573,538.918,0.0
53850.0,STARLINK-4767,PAYLOAD,2023-09-12 04:35:08,15.0884376,0.0001206,53.2183,56.6309,95.0847,265.0283,5.9059e-05,6.52e-06,0.0,0 STARLINK-4767,1 53850U 22114AJ  23255.19107410  .00000652  00000-0  59059-4 0  9996,2 53850  53.2183  56.6309 0001206  95.0847 265.0283 15.08843760 55677,6917.869,95.437,540.568,538.9,0.0
53850.0,STARLINK-4767,PAYLOAD,2023-09-12 17:18:13,15.08849478,0.0001263,53.2185,54.2538,88.0282,272.0855,2.8573e-05,1.67e-06,0.0,0 STARLINK-4767,1 53850U 22114AJ  23255.72099090  .00000167  00000-0  28573-4 0  9997,2 53850  53.2185  54.2538 0001263  88.0282 272.0855 15.08849478 55210,6917.851,95.437,540.59,538.843,0.0
53850.0,STARLINK-4767,PAYLOAD,2023-09-12 18:53:36,15.08852615,0.0001307,53.2191,53.9548,104.122,255.9918,2.9378e-05,1.8e-06,0.0,0 STARLINK-4767,1 53850U 22114AJ  23255.78722812  .00000180  00000-0  29378-4 0  9997,2 53850  53.2191  53.9548 0001307 104.1220 255.9918 15.08852615 55762,6917.842,95.437,540.611,538.803,0.0
53850.0,STARLINK-4767,PAYLOAD,2023-09-13 13:58:14,15.08845462,0.0001232,53.2179,50.3864,95.5093,264.604,0.00030213,4.524e-05,0.0,0 STARLINK-4767,1 53850U 22114AJ  23256.58211063  .00004524  00000-0  30213-3 0  9992,2 53850  53.2179  50.3864 0001232  95.5093 264.6040 15.08845462 55886,6917.864,95.437,540.581,538.876,0.0
53850.0,STARLINK-4767,PAYLOAD,2023-09-13 17:09:00,15.0885134,0.0001266,53.2175,49.7934,84.7254,275.3882,0.000242,3.567e-05,0.0,0 STARLINK-4767,1 53850U 22114AJ  23256.71458728  .00003567  00000-0  24200-3 0  9993,2 53850  53.2175  49.7934 0001266  84.7254 275.3882 15.08851340 55906,6917.846,95.437,540.587,538.835,0.0
53850.0,STARLINK-4767,PAYLOAD,2023-09-14 10:38:15,15.08830169,5.61e-05,53.2178,46.5235,38.0529,322.0503,-7.4506e-05,-1.473e-05,0.0,0 STARLINK-4767,1 53850U 22114AJ  23257.44324016 -.00001473  00000-0 -74506-4 0  9997,2 53850  53.2178  46.5235 0000561  38.0529 322.0503 15.08830169 55470,6917.91,95.438,540.164,539.387,0.0
53850.0,STARLINK-4767,PAYLOAD,2023-09-14 18:35:12,15.08832323,0.000117,53.2181,45.0368,90.4549,269.6577,-3.8076e-05,-8.94e-06,0.0,0 STARLINK-4767,1 53850U 22114AJ  23257.77444512 -.00000894  00000-0 -38076-4 0  9995,2 53850  53.2181  45.0368 0001170  90.4549 269.6577 15.08832323 56063,6917.904,95.438,540.578,538.959,0.0
53850.0,STARLINK-4767,PAYLOAD,2023-09-15 08:53:40,15.08838893,0.0001126,53.2184,42.3606,95.1971,264.915,1.8384e-05,5e-08,0.0,0 STARLINK-4767,1 53850U 22114AJ  23258.37060235  .00000005  00000-0  18384-4 0  9990,2 53850  53.2184  42.3606 0001126  95.1971 264.9150 15.08838893 55616,6917.884,95.438,540.528,538.97,0.0
53850.0,STARLINK-4767,PAYLOAD,2023-09-15 13:39:49,15.08840843,0.0001139,53.2174,41.4682,91.9812,268.1311,6.6442e-05,7.7e-06,0.0,0 STARLINK-4767,1 53850U 22114AJ  23258.56931846  .00000770  00000-0  66442-4 0  9993,2 53850  53.2174  41.4682 0001139  91.9812 268.1311 15.08840843 56187,6917.878,95.438,540.531,538.955,0.0
53850.0,STARLINK-4767,PAYLOAD,2023-09-15 16:50:35,15.08845028,0.0001162,53.2179,40.8744,96.7997,263.3127,0.0001427,1.984e-05,0.0,0 STARLINK-4767,1 53850U 22114AJ  23258.70179650  .00001984  00000-0  14270-3 0  9995,2 53850  53.2179  40.8744 0001162  96.7997 263.3127 15.08845028 55661,6917.865,95.437,540.534,538.926,0.0
53850.0,STARLINK-4767,PAYLOAD,2023-09-16 13:30:36,15.08833883,0.0001172,53.2183,37.0084,90.5822,269.5305,7.2551e-05,8.67e-06,0.0,0 STARLINK-4767,1 53850U 22114AJ  23259.56292456  .00000867  00000-0  72551-4 0  9996,2 53850  53.2183  37.0084 0001172  90.5822 269.5305 15.08833883 56338,6917.899,95.438,540.575,538.953,0.0
53850.0,STARLINK-4767,PAYLOAD,2023-09-16 16:41:22,15.08838664,0.0001343,53.219,36.4135,79.5077,280.6067,0.00014824,2.072e-05,0.0,0 STARLINK-4767,1 53850U 22114AJ  23259.69540365  .00002072  00000-0  14824-3 0  9993,2 53850  53.2190  36.4135 0001343  79.5077 280.6067 15.08838664 55818,6917.884,95.438,540.679,538.82,0.0
53850.0,STARLINK-4767,PAYLOAD,2023-09-16 18:16:46,15.0884133,0.0001283,53.2186,36.117,82.7555,277.3583,0.00026631,3.953e-05,0.0,0 STARLINK-4767,1 53850U 22114AJ  23259.76164447  .00003953  00000-0  26631-3 0  9992,2 53850  53.2186  36.1170 0001283  82.7555 277.3583 15.08841330 56360,6917.876,95.437,540.629,538.854,0.0
53850.0,STARLINK-4767,PAYLOAD,2023-09-17 18:07:32,15.08856353,0.0001245,53.2184,31.6553,73.0488,287.0641,0.00035917,5.435e-05,0.0,0 STARLINK-4767,1 53850U 22114AJ  23260.75523717  .00005435  00000-0  35917-3 0  9996,2 53850  53.2184  31.6553 0001245  73.0488 287.0641 15.08856353 55979,6917.83,95.437,540.557,538.834,0.0
53850.0,STARLINK-4767,PAYLOAD,2023-09-18 02:04:28,15.08847174,0.0001069,53.2187,30.1682,85.5335,274.5779,0.00021961,3.21e-05,0.0,0 STARLINK-4767,1 53850U 22114AJ  23261.08644010  .00003210  00000-0  21961-3 0  9996,2 53850  53.2187  30.1682 0001069  85.5335 274.5779 15.08847174 56023,6917.858,95.437,540.463,538.984,0.0
53850.0,STARLINK-4767,PAYLOAD,2023-09-18 13:12:10,15.08842737,0.0001552,53.2181,28.0883,83.6638,276.4531,0.00018652,2.682e-05,0.0,0 STARLINK-4767,1 53850U 22114AJ  23261.55012386  .00002682  00000-0  18652-3 0  9998,2 53850  53.2181  28.0883 0001552  83.6638 276.4531 15.08842737 56632,6917.872,95.437,540.811,538.663,0.0
53850.0,STARLINK-4767,PAYLOAD,2023-09-18 16:22:56,15.08845386,0.0001569,53.2189,27.4929,80.0245,280.0925,0.00018613,2.676e-05,0.0,0 STARLINK-4767,1 53850U 22114AJ  23261.68260260  .00002676  00000-0  18613-3 0  9998,2 53850  53.2189  27.4929 0001569  80.0245 280.0925 15.08845386 56111,6917.864,95.437,540.814,538.644,0.0
53850.0,STARLINK-4767,PAYLOAD,2023-09-19 16:13:43,15.08860448,0.0001482,53.2181,23.0327,90.2598,269.8564,0.0004904,7.53e-05,0.0,0 STARLINK-4767,1 53850U 22114AJ  23262.67619411  .00007530  00000-0  49040-3 0  9996,2 53850  53.2181  23.0327 0001482  90.2598 269.8564 15.08860448 56261,6917.818,95.436,540.708,538.658,0.0
53850.0,STARLINK-4767,PAYLOAD,2023-09-20 12:53:45,15.08824281,0.0001256,53.2184,19.1669,90.8037,269.3099,-0.00019613,-3.407e-05,0.0,0 STARLINK-4767,1 53850U 22114AJ  23263.53733077 -.00003407  00000-0 -19613-3 0  9991,2 53850  53.2184  19.1669 0001256  90.8037 269.3099 15.08824281 56399,6917.928,95.439,540.662,538.925,0.0
53850.0,STARLINK-4767,PAYLOAD,2023-09-20 14:29:08,15.08823754,0.0001283,53.2185,18.8699,96.8376,263.2762,-0.00019484,-3.386e-05,0.0,0 STARLINK-4767,1 53850U 22114AJ  23263.60357141 -.00003386  00000-0 -19484-3 0  9995,2 53850  53.2185  18.8699 0001283  96.8376 263.2762 15.08823754 56946,6917.93,95.439,540.683,538.907,0.0
53850.0,STARLINK-4767,PAYLOAD,2023-09-20 16:04:31,15.08824318,0.0001288,53.2185,18.5722,101.5213,258.5924,-0.00015969,-2.827e-05,0.0,0 STARLINK-4767,1 53850U 22114AJ  23263.66981176 -.00002827  00000-0 -15969-3 0  9995,2 53850  53.2185  18.5722 0001288 101.5213 258.5924 15.08824318 56954,6917.928,95.439,540.684,538.902,0.0
53850.0,STARLINK-4767,PAYLOAD,2023-09-21 07:58:23,15.08838531,0.0001047,53.2177,15.6001,109.492,250.6185,0.00031581,4.742e-05,0.0,0 STARLINK-4767,1 53850U 22114AJ  23264.33221218  .00004742  00000-0  31581-3 0  9998,2 53850  53.2177  15.6001 0001047 109.4920 250.6185 15.08838531 56514,6917.885,95.438,540.474,539.026,0.0
53850.0,STARLINK-4767,PAYLOAD,2023-09-21 12:44:32,15.08849613,0.0001079,53.2181,14.7093,94.0615,266.0501,0.00058845,9.092e-05,0.0,0 STARLINK-4767,1 53850U 22114AJ  23264.53093029  .00009092  00000-0  58845-3 0  9992,2 53850  53.2181  14.7093 0001079  94.0615 266.0501 15.08849613 57084,6917.851,95.437,540.462,538.97,0.0
53850.0,STARLINK-4767,PAYLOAD,2023-09-21 15:55:18,15.08857816,0.0001299,53.2187,14.1098,114.5548,245.558,0.001002,0.00015703,0.0,0 STARLINK-4767,1 53850U 22114AJ  23264.66340875  .00015703  00000-0  10020-2 0  9998,2 53850  53.2187  14.1098 0001299 114.5548 245.5580 15.08857816 56561,6917.826,95.436,540.59,538.792,0.0
53850.0,STARLINK-4767,PAYLOAD,2023-09-21 23:52:14,15.08862276,0.0001106,53.2181,12.623,72.4485,287.6628,0.00060012,9.282e-05,0.0,0 STARLINK-4767,1 53850U 22114AJ  23264.99460708  .00009282  00000-0  60012-3 0  9994,2 53850  53.2181  12.6230 0001106  72.4485 287.6628 15.08862276 56617,6917.812,95.436,540.442,538.912,0.0
53850.0,STARLINK-4767,PAYLOAD,2023-09-22 10:59:55,15.08847878,0.0001194,53.219,10.5433,93.2392,266.8737,-7.4251e-05,-1.47e-05,0.0,0 STARLINK-4767,1 53850U 22114AJ  23265.45828636 -.00001470  00000-0 -74251-4 0  9998,2 53850  53.2190  10.5433 0001194  93.2392 266.8737 15.08847878 56682,6917.856,95.437,540.547,538.895,0.0
53850.0,STARLINK-4767,PAYLOAD,2023-09-22 12:35:19,15.08852121,0.0001264,53.2192,10.2468,96.539,263.5746,0.00014236,1.979e-05,0.0,0 STARLINK-4767,1 53850U 22114AJ  23265.52452594  .00001979  00000-0  14236-3 0  9990,2 53850  53.2192  10.2468 0001264  96.5390 263.5746 15.08852121 57234,6917.843,95.437,540.583,538.834,0.0
